CCSDS_OMM_VERS = 2.0
CREATION_DATE  = 
ORIGINATOR     = 

OBJECT_NAME    = KUIPER-00213
OBJECT_ID      = 2026-030P
CENTER_NAME    = EARTH
REF_FRAME      = TEME
TIME_SYSTEM    = UTC
MEAN_ELEMENT_THEORY = SGP/SGP4

EPOCH          = 2026-03-03T14:35:10.194432
MEAN_MOTION    = 15.32473115
ECCENTRICITY   = .0014919
INCLINATION    = 51.8791
RA_OF_ASC_NODE = 248.7947
ARG_OF_PERICENTER = 47.0037
MEAN_ANOMALY   = 313.2196

EPHEMERIS_TYPE = 0
CLASSIFICATION_TYPE = U
NORAD_CAT_ID   = 67777
ELEMENT_SET_NO = 999
REV_AT_EPOCH   = 415
BSTAR          = .72474974E-3
MEAN_MOTION_DOT = .22834E-3
MEAN_MOTION_DDOT = 0

CCSDS_OMM_VERS = 2.0
CREATION_DATE  = 
ORIGINATOR     = 

OBJECT_NAME    = KUIPER-00214
OBJECT_ID      = 2026-030Q
CENTER_NAME    = EARTH
REF_FRAME      = TEME
TIME_SYSTEM    = UTC
MEAN_ELEMENT_THEORY = SGP/SGP4

EPOCH          = 2026-03-03T13:35:57.147360
MEAN_MOTION    = 15.36505345
ECCENTRICITY   = .00009419
INCLINATION    = 51.8841
RA_OF_ASC_NODE = 248.5387
ARG_OF_PERICENTER = 202.3850
MEAN_ANOMALY   = 157.7095

EPHEMERIS_TYPE = 0
CLASSIFICATION_TYPE = U
NORAD_CAT_ID   = 67778
ELEMENT_SET_NO = 999
REV_AT_EPOCH   = 415
BSTAR          = .100885E-2
MEAN_MOTION_DOT = .36285E-3
MEAN_MOTION_DDOT = 0

CCSDS_OMM_VERS = 2.0
CREATION_DATE  = 
ORIGINATOR     = 

OBJECT_NAME    = KUIPER-00215
OBJECT_ID      = 2026-030R
CENTER_NAME    = EARTH
REF_FRAME      = TEME
TIME_SYSTEM    = UTC
MEAN_ELEMENT_THEORY = SGP/SGP4

EPOCH          = 2026-03-03T14:16:09.235776
MEAN_MOTION    = 15.34164337
ECCENTRICITY   = .00098788
INCLINATION    = 51.8828
RA_OF_ASC_NODE = 248.7191
ARG_OF_PERICENTER = 43.0534
MEAN_ANOMALY   = 317.1222

EPHEMERIS_TYPE = 0
CLASSIFICATION_TYPE = U
NORAD_CAT_ID   = 67779
ELEMENT_SET_NO = 999
REV_AT_EPOCH   = 415
BSTAR          = .80583344E-3
MEAN_MOTION_DOT = .26804E-3
MEAN_MOTION_DDOT = 0

CCSDS_OMM_VERS = 2.0
CREATION_DATE  = 
ORIGINATOR     = 

OBJECT_NAME    = KUIPER-00218
OBJECT_ID      = 2026-030S
CENTER_NAME    = EARTH
REF_FRAME      = TEME
TIME_SYSTEM    = UTC
MEAN_ELEMENT_THEORY = SGP/SGP4

EPOCH          = 2026-03-03T14:03:36.012672
MEAN_MOTION    = 15.34888543
ECCENTRICITY   = .00064002
INCLINATION    = 51.8830
RA_OF_ASC_NODE = 248.6616
ARG_OF_PERICENTER = 34.0577
MEAN_ANOMALY   = 326.0818

EPHEMERIS_TYPE = 0
CLASSIFICATION_TYPE = U
NORAD_CAT_ID   = 67780
ELEMENT_SET_NO = 999
REV_AT_EPOCH   = 415
BSTAR          = .10901986E-2
MEAN_MOTION_DOT = .37272E-3
MEAN_MOTION_DDOT = 0

CCSDS_OMM_VERS = 2.0
CREATION_DATE  = 
ORIGINATOR     = 

OBJECT_NAME    = KUIPER-00220
OBJECT_ID      = 2026-030T
CENTER_NAME    = EARTH
REF_FRAME      = TEME
TIME_SYSTEM    = UTC
MEAN_ELEMENT_THEORY = SGP/SGP4

EPOCH          = 2026-03-03T14:11:40.275168
MEAN_MOTION    = 15.34466757
ECCENTRICITY   = .00081434
INCLINATION    = 51.8796
RA_OF_ASC_NODE = 248.6916
ARG_OF_PERICENTER = 39.0718
MEAN_ANOMALY   = 321.0854

EPHEMERIS_TYPE = 0
CLASSIFICATION_TYPE = U
NORAD_CAT_ID   = 67781
ELEMENT_SET_NO = 999
REV_AT_EPOCH   = 415
BSTAR          = .10662818E-2
MEAN_MOTION_DOT = .35964E-3
MEAN_MOTION_DDOT = 0

CCSDS_OMM_VERS = 2.0
CREATION_DATE  = 
ORIGINATOR     = 

OBJECT_NAME    = KUIPER-00222
OBJECT_ID      = 2026-030U
CENTER_NAME    = EARTH
REF_FRAME      = TEME
TIME_SYSTEM    = UTC
MEAN_ELEMENT_THEORY = SGP/SGP4

EPOCH          = 2026-03-03T14:40:06.261312
MEAN_MOTION    = 15.32281049
ECCENTRICITY   = .00176894
INCLINATION    = 51.8795
RA_OF_ASC_NODE = 248.8165
ARG_OF_PERICENTER = 41.2105
MEAN_ANOMALY   = 319.0211

EPHEMERIS_TYPE = 0
CLASSIFICATION_TYPE = U
NORAD_CAT_ID   = 67782
ELEMENT_SET_NO = 999
REV_AT_EPOCH   = 415
BSTAR          = .57226195E-3
MEAN_MOTION_DOT = .17852E-3
MEAN_MOTION_DDOT = 0

CCSDS_OMM_VERS = 2.0
CREATION_DATE  = 
ORIGINATOR     = 

OBJECT_NAME    = KUIPER-00223
OBJECT_ID      = 2026-030V
CENTER_NAME    = EARTH
REF_FRAME      = TEME
TIME_SYSTEM    = UTC
MEAN_ELEMENT_THEORY = SGP/SGP4

EPOCH          = 2026-03-03T14:20:33.710496
MEAN_MOTION    = 15.33956877
ECCENTRICITY   = .00121493
INCLINATION    = 51.8813
RA_OF_ASC_NODE = 248.7355
ARG_OF_PERICENTER = 43.2526
MEAN_ANOMALY   = 316.9411

EPHEMERIS_TYPE = 0
CLASSIFICATION_TYPE = U
NORAD_CAT_ID   = 67783
ELEMENT_SET_NO = 999
REV_AT_EPOCH   = 415
BSTAR          = .78973599E-3
MEAN_MOTION_DOT = .26104E-3
MEAN_MOTION_DDOT = 0

CCSDS_OMM_VERS = 2.0
CREATION_DATE  = 
ORIGINATOR     = 

OBJECT_NAME    = KUIPER-00225
OBJECT_ID      = 2026-030W
CENTER_NAME    = EARTH
REF_FRAME      = TEME
TIME_SYSTEM    = UTC
MEAN_ELEMENT_THEORY = SGP/SGP4

EPOCH          = 2026-03-03T13:51:56.792160
MEAN_MOTION    = 15.35607268
ECCENTRICITY   = .00039027
INCLINATION    = 51.8809
RA_OF_ASC_NODE = 248.6045
ARG_OF_PERICENTER = 23.5564
MEAN_ANOMALY   = 336.5600

EPHEMERIS_TYPE = 0
CLASSIFICATION_TYPE = U
NORAD_CAT_ID   = 67784
ELEMENT_SET_NO = 999
REV_AT_EPOCH   = 415
BSTAR          = .10271602E-2
MEAN_MOTION_DOT = .35897E-3
MEAN_MOTION_DDOT = 0

CCSDS_OMM_VERS = 2.0
CREATION_DATE  = 
ORIGINATOR     = 

OBJECT_NAME    = KUIPER-00226
OBJECT_ID      = 2026-030X
CENTER_NAME    = EARTH
REF_FRAME      = TEME
TIME_SYSTEM    = UTC
MEAN_ELEMENT_THEORY = SGP/SGP4

EPOCH          = 2026-03-03T14:54:30.044448
MEAN_MOTION    = 15.31335086
ECCENTRICITY   = .00195391
INCLINATION    = 51.8807
RA_OF_ASC_NODE = 248.8811
ARG_OF_PERICENTER = 55.3612
MEAN_ANOMALY   = 304.9211

EPHEMERIS_TYPE = 0
CLASSIFICATION_TYPE = U
NORAD_CAT_ID   = 67785
ELEMENT_SET_NO = 999
REV_AT_EPOCH   = 415
BSTAR          = -.15554033E-3
MEAN_MOTION_DOT = -.518E-4
MEAN_MOTION_DDOT = 0

CCSDS_OMM_VERS = 2.0
CREATION_DATE  = 
ORIGINATOR     = 

OBJECT_NAME    = KUIPER-00259
OBJECT_ID      = 2026-030Y
CENTER_NAME    = EARTH
REF_FRAME      = TEME
TIME_SYSTEM    = UTC
MEAN_ELEMENT_THEORY = SGP/SGP4

EPOCH          = 2026-03-03T14:06:21.461760
MEAN_MOTION    = 15.34786214
ECCENTRICITY   = .00080402
INCLINATION    = 51.8802
RA_OF_ASC_NODE = 248.6680
ARG_OF_PERICENTER = 32.6457
MEAN_ANOMALY   = 327.5024

EPHEMERIS_TYPE = 0
CLASSIFICATION_TYPE = U
NORAD_CAT_ID   = 67786
ELEMENT_SET_NO = 999
REV_AT_EPOCH   = 415
BSTAR          = .10383981E-2
MEAN_MOTION_DOT = .3537E-3
MEAN_MOTION_DDOT = 0

CCSDS_OMM_VERS = 2.0
CREATION_DATE  = 
ORIGINATOR     = 

OBJECT_NAME    = KUIPER-00260
OBJECT_ID      = 2026-030Z
CENTER_NAME    = EARTH
REF_FRAME      = TEME
TIME_SYSTEM    = UTC
MEAN_ELEMENT_THEORY = SGP/SGP4

EPOCH          = 2026-03-03T13:41:52.374048
MEAN_MOTION    = 15.36166005
ECCENTRICITY   = .00008753
INCLINATION    = 51.8793
RA_OF_ASC_NODE = 248.5575
ARG_OF_PERICENTER = 69.7544
MEAN_ANOMALY   = 290.3536

EPHEMERIS_TYPE = 0
CLASSIFICATION_TYPE = U
NORAD_CAT_ID   = 67787
ELEMENT_SET_NO = 999
REV_AT_EPOCH   = 406
BSTAR          = .10398064E-2
MEAN_MOTION_DOT = .37005E-3
MEAN_MOTION_DDOT = 0

CCSDS_OMM_VERS = 2.0
CREATION_DATE  = 
ORIGINATOR     = 

OBJECT_NAME    = KUIPER-00262
OBJECT_ID      = 2026-030AA
CENTER_NAME    = EARTH
REF_FRAME      = TEME
TIME_SYSTEM    = UTC
MEAN_ELEMENT_THEORY = SGP/SGP4

EPOCH          = 2026-03-03T13:37:20.766144
MEAN_MOTION    = 15.36478514
ECCENTRICITY   = .00004907
INCLINATION    = 51.8810
RA_OF_ASC_NODE = 248.5405
ARG_OF_PERICENTER = 144.9331
MEAN_ANOMALY   = 215.1688

EPHEMERIS_TYPE = 0
CLASSIFICATION_TYPE = U
NORAD_CAT_ID   = 67788
ELEMENT_SET_NO = 999
REV_AT_EPOCH   = 415
BSTAR          = .10524729E-2
MEAN_MOTION_DOT = .37846E-3
MEAN_MOTION_DDOT = 0

